[{"OBJECT_NAME":"JB-3 3 (ZY 2C)","OBJECT_ID":"2004-044A","EPOCH":"2026-03-09T22:02:57.764832","MEAN_MOTION":15.18506021,"ECCENTRICITY":0.00333938,"INCLINATION":97.2622,"RA_OF_ASC_NODE":226.2642,"ARG_OF_PERICENTER":206.2478,"MEAN_ANOMALY":153.7066,"EPHEMERIS_TYPE":0,"CLASSIFICATION_TYPE":"U","NORAD_CAT_ID":28470,"ELEMENT_SET_NO":999,"REV_AT_EPOCH":17271,"BSTAR":0.00032413866,"MEAN_MOTION_DOT":6.719e-5,"MEAN_MOTION_DDOT":0},{"OBJECT_NAME":"STARLINK-6145","OBJECT_ID":"2023-061R","EPOCH":"2026-03-09T22:00:01.999584","MEAN_MOTION":15.11435499,"ECCENTRICITY":0.00022055,"INCLINATION":42.9996,"RA_OF_ASC_NODE":195.664,"ARG_OF_PERICENTER":277.7301,"MEAN_ANOMALY":146.4947,"EPHEMERIS_TYPE":0,"CLASSIFICATION_TYPE":"U","NORAD_CAT_ID":56389,"ELEMENT_SET_NO":999,"REV_AT_EPOCH":577,"BSTAR":0.0030486512,"MEAN_MOTION_DOT":0.00052606,"MEAN_MOTION_DDOT":0}]
